{"type": "FeatureCollection", "features": [ {"type": "Feature", "properties": {"norad_id": 35602, "name": "COSMOS 2251 DEB", "group": "cosmos-2251-debris", "lat": -10.242880260785887, "lon": -16.849639839364507, "alt_km": 412.4108149185322, "timestamp": "2025-12-22T23:36:21.113058+00:00", "meta": {"OBJECT_NAME": "COSMOS 2251 DEB", "OBJECT_ID": "1993-036AMV", "EPOCH": "2025-12-19T12:02:08.754144", "MEAN_MOTION": 15.3532305, "ECCENTRICITY": 0.0089059, "INCLINATION": 73.9924, "RA_OF_ASC_NODE": 167.6664, "ARG_OF_PERICENTER": 231.9555, "MEAN_ANOMALY": 160.7824, "EPHEMERIS_TYPE": 0, "CLASSIFICATION_TYPE": "U", "NORAD_CAT_ID": 35602, "ELEMENT_SET_NO": 999, "REV_AT_EPOCH": 90195, "BSTAR": 0.00042337, "MEAN_MOTION_DOT": 0.00016543, "MEAN_MOTION_DDOT": 0}, "tle": {"line1": "1 35602U 93036AMV 25353.50149021  .00016543  00000+0  42337-3 0  9997", "line2": "2 35602  73.9924 167.6664 0089059 231.9555 160.7824 15.35323050901958"}}, "geometry": {"type": "Point", "coordinates": [-16.849639839364507, -10.242880260785887]}}, {"type": "Feature", "properties": {"norad_id": 35605, "name": "COSMOS 2251 DEB", "group": "cosmos-2251-debris", "lat": -73.29508756986023, "lon": -120.28532661368583, "alt_km": 445.8042683088606, "timestamp": "2025-12-22T23:36:21.113068+00:00", "meta": {"OBJECT_NAME": "COSMOS 2251 DEB", "OBJECT_ID": "1993-036AMY", "EPOCH": "2025-12-22T14:36:44.008416", "MEAN_MOTION": 15.38179315, "ECCENTRICITY": 0.00228045, "INCLINATION": 73.869, "RA_OF_ASC_NODE": 315.1978, "ARG_OF_PERICENTER": 235.9327, "MEAN_ANOMALY": 123.9715, "EPHEMERIS_TYPE": 0, "CLASSIFICATION_TYPE": "U", "NORAD_CAT_ID": 35605, "ELEMENT_SET_NO": 999, "REV_AT_EPOCH": 66123, "BSTAR": 0.0066900453, "MEAN_MOTION_DOT": 0.00262511, "MEAN_MOTION_DDOT": 0}, "tle": {"line1": "1 35605U 93036AMY 25356.60884269  .00262511  00000+0  66900-2 0  9993", "line2": "2 35605  73.8690 315.1978 0022804 235.9327 123.9715 15.38179315661234"}}, "geometry": {"type": "Point", "coordinates": [-120.28532661368583, -73.29508756986023]}}, {"type": "Feature", "properties": {"norad_id": 35606, "name": "COSMOS 2251 DEB", "group": "cosmos-2251-debris", "lat": -28.69259094548752, "lon": -14.6803452815143, "alt_km": 1327.3524154632232, "timestamp": "2025-12-22T23:36:21.113079+00:00", "meta": {"OBJECT_NAME": "COSMOS 2251 DEB", "OBJECT_ID": "1993-036AMZ", "EPOCH": "2025-12-22T05:51:54.884736", "MEAN_MOTION": 13.41219039, "ECCENTRICITY": 0.04568591, "INCLINATION": 73.8097, "RA_OF_ASC_NODE": 355.6464, "ARG_OF_PERICENTER": 199.9596, "MEAN_ANOMALY": 158.312, "EPHEMERIS_TYPE": 0, "CLASSIFICATION_TYPE": "U", "NORAD_CAT_ID": 35606, "ELEMENT_SET_NO": 999, "REV_AT_EPOCH": 61167, "BSTAR": 0.00025296836, "MEAN_MOTION_DOT": 2.37e-06, "MEAN_MOTION_DDOT": 0}, "tle": {"line1": "1 35606U 93036AMZ 25356.24438524  .00000237  00000+0  25297-3 0  9993", "line2": "2 35606  73.8097 355.6464 0456859 199.9596 158.3120 13.41219039611678"}}, "geometry": {"type": "Point", "coordinates": [-14.6803452815143, -28.69259094548752]}}, {"type": "Feature", "properties": {"norad_id": 35611, "name": "COSMOS 2251 DEB", "group": "cosmos-2251-debris", "lat": -73.34089195203106, "lon": 52.60549385684355, "alt_km": 645.7276398475678, "timestamp": "2025-12-22T23:36:21.113089+00:00", "meta": {"OBJECT_NAME": "COSMOS 2251 DEB", "OBJECT_ID": "1993-036ANE", "EPOCH": "2025-12-19T11:16:40.848672", "MEAN_MOTION": 14.73020971, "ECCENTRICITY": 0.0021353, "INCLINATION": 74.0189, "RA_OF_ASC_NODE": 166.1787, "ARG_OF_PERICENTER": 238.9125, "MEAN_ANOMALY": 120.9952, "EPHEMERIS_TYPE": 0, "CLASSIFICATION_TYPE": "U", "NORAD_CAT_ID": 35611, "ELEMENT_SET_NO": 999, "REV_AT_EPOCH": 87389, "BSTAR": 0.0015718, "MEAN_MOTION_DOT": 0.0001012, "MEAN_MOTION_DDOT": 0}, "tle": {"line1": "1 35611U 93036ANE 25353.46991723  .00010120  00000+0  15718-2 0  9993", "line2": "2 35611  74.0189 166.1787 0021353 238.9125 120.9952 14.73020971873894"}}, "geometry": {"type": "Point", "coordinates": [52.60549385684355, -73.34089195203106]}}, {"type": "Feature", "properties": {"norad_id": 35614, "name": "COSMOS 2251 DEB", "group": "cosmos-2251-debris", "lat": 12.62827678372428, "lon": 123.90217302877987, "alt_km": 618.6712799845673, "timestamp": "2025-12-22T23:36:21.113100+00:00", "meta": {"OBJECT_NAME": "COSMOS 2251 DEB", "OBJECT_ID": "1993-036ANH", "EPOCH": "2025-12-22T04:50:52.701504", "MEAN_MOTION": 14.67087782, "ECCENTRICITY": 0.00751415, "INCLINATION": 73.9595, "RA_OF_ASC_NODE": 309.1128, "ARG_OF_PERICENTER": 161.1452, "MEAN_ANOMALY": 199.2529, "EPHEMERIS_TYPE": 0, "CLASSIFICATION_TYPE": "U", "NORAD_CAT_ID": 35614, "ELEMENT_SET_NO": 999, "REV_AT_EPOCH": 87868, "BSTAR": 0.00075496675, "MEAN_MOTION_DOT": 4.392e-05, "MEAN_MOTION_DDOT": 0}, "tle": {"line1": "1 35614U 93036ANH 25356.20199886  .00004392  00000+0  75497-3 0  9996", "line2": "2 35614  73.9595 309.1128 0075141 161.1452 199.2529 14.67087782878685"}}, "geometry": {"type": "Point", "coordinates": [123.90217302877987, 12.62827678372428]}}, {"type": "Feature", "properties": {"norad_id": 35645, "name": "COSMOS 2251 DEB", "group": "cosmos-2251-debris", "lat": 2.5985217316750293, "lon": -112.20175159860622, "alt_km": 708.3744531726206, "timestamp": "2025-12-22T23:36:21.113110+00:00", "meta": {"OBJECT_NAME": "COSMOS 2251 DEB", "OBJECT_ID": "1993-036ANL", "EPOCH": "2025-12-20T22:37:16.438368", "MEAN_MOTION": 14.45688702, "ECCENTRICITY": 0.0069769, "INCLINATION": 73.9649, "RA_OF_ASC_NODE": 72.3676, "ARG_OF_PERICENTER": 229.1797, "MEAN_ANOMALY": 130.3298, "EPHEMERIS_TYPE": 0, "CLASSIFICATION_TYPE": "U", "NORAD_CAT_ID": 35645, "ELEMENT_SET_NO": 999, "REV_AT_EPOCH": 86890, "BSTAR": 0.0012662, "MEAN_MOTION_DOT": 4.592e-05, "MEAN_MOTION_DDOT": 0}, "tle": {"line1": "1 35645U 93036ANL 25354.94255137  .00004592  00000+0  12662-2 0  9997", "line2": "2 35645  73.9649  72.3676 0069769 229.1797 130.3298 14.45688702868900"}}, "geometry": {"type": "Point", "coordinates": [-112.20175159860622, 2.5985217316750293]}}, {"type": "Feature", "properties": {"norad_id": 35646, "name": "COSMOS 2251 DEB", "group": "cosmos-2251-debris", "lat": -22.033914176056324, "lon": -133.49947349000988, "alt_km": 903.3795720403496, "timestamp": "2025-12-22T23:36:21.113120+00:00", "meta": {"OBJECT_NAME": "COSMOS 2251 DEB", "OBJECT_ID": "1993-036ANM", "EPOCH": "2025-12-20T21:21:16.108128", "MEAN_MOTION": 13.40831039, "ECCENTRICITY": 0.0456194, "INCLINATION": 73.8716, "RA_OF_ASC_NODE": 43.0968, "ARG_OF_PERICENTER": 151.9118, "MEAN_ANOMALY": 23.6706, "EPHEMERIS_TYPE": 0, "CLASSIFICATION_TYPE": "U", "NORAD_CAT_ID": 35646, "ELEMENT_SET_NO": 999, "REV_AT_EPOCH": 81967, "BSTAR": 0.00033731, "MEAN_MOTION_DOT": 3.24e-06, "MEAN_MOTION_DDOT": 0}, "tle": {"line1": "1 35646U 93036ANM 25354.88976977  .00000324  00000+0  33731-3 0  9993", "line2": "2 35646  73.8716  43.0968 0456194 151.9118  23.6706 13.40831039819670"}}, "geometry": {"type": "Point", "coordinates": [-133.49947349000988, -22.033914176056324]}}, {"type": "Feature", "properties": {"norad_id": 35647, "name": "COSMOS 2251 DEB", "group": "cosmos-2251-debris", "lat": 4.181479043014887, "lon": 94.31037112277345, "alt_km": 779.7995465667691, "timestamp": "2025-12-22T23:36:21.113130+00:00", "meta": {"OBJECT_NAME": "COSMOS 2251 DEB", "OBJECT_ID": "1993-036ANN", "EPOCH": "2025-12-20T12:35:18.566880", "MEAN_MOTION": 14.43670529, "ECCENTRICITY": 0.0045979, "INCLINATION": 74.0241, "RA_OF_ASC_NODE": 280.0829, "ARG_OF_PERICENTER": 17.3675, "MEAN_ANOMALY": 342.9041, "EPHEMERIS_TYPE": 0, "CLASSIFICATION_TYPE": "U", "NORAD_CAT_ID": 35647, "ELEMENT_SET_NO": 999, "REV_AT_EPOCH": 67776, "BSTAR": 0.00050731, "MEAN_MOTION_DOT": 1.718e-05, "MEAN_MOTION_DDOT": 0}, "tle": {"line1": "1 35647U 93036ANN 25354.52452045  .00001718  00000+0  50731-3 0  9997", "line2": "2 35647  74.0241 280.0829 0045979  17.3675 342.9041 14.43670529677764"}}, "geometry": {"type": "Point", "coordinates": [94.31037112277345, 4.181479043014887]}}, {"type": "Feature", "properties": {"norad_id": 35650, "name": "COSMOS 2251 DEB", "group": "cosmos-2251-debris", "lat": 23.063497250185506, "lon": 5.589010444457766, "alt_km": 606.469548650155, "timestamp": "2025-12-22T23:36:21.113141+00:00", "meta": {"OBJECT_NAME": "COSMOS 2251 DEB", "OBJECT_ID": "1993-036ANR", "EPOCH": "2025-12-21T00:43:00.521760", "MEAN_MOTION": 14.83815616, "ECCENTRICITY": 0.00149589, "INCLINATION": 74.045, "RA_OF_ASC_NODE": 2.46, "ARG_OF_PERICENTER": 46.0258, "MEAN_ANOMALY": 346.2318, "EPHEMERIS_TYPE": 0, "CLASSIFICATION_TYPE": "U", "NORAD_CAT_ID": 35650, "ELEMENT_SET_NO": 999, "REV_AT_EPOCH": 87757, "BSTAR": 0.0010844283, "MEAN_MOTION_DOT": 8.984e-05, "MEAN_MOTION_DDOT": 0}, "tle": {"line1": "1 35650U 93036ANR 25355.02986715  .00008984  00000+0  10844-2 0  9995", "line2": "2 35650  74.0450   2.4600 0014958  46.0258 346.2318 14.83815616877579"}}, "geometry": {"type": "Point", "coordinates": [5.589010444457766, 23.063497250185506]}}, {"type": "Feature", "properties": {"norad_id": 35660, "name": "COSMOS 2251 DEB", "group": "cosmos-2251-debris", "lat": 23.354798487755037, "lon": -73.09161335910686, "alt_km": 728.7837627265444, "timestamp": "2025-12-22T23:36:21.113151+00:00", "meta": {"OBJECT_NAME": "COSMOS 2251 DEB", "OBJECT_ID": "1993-036APB", "EPOCH": "2025-12-22T02:10:51.745152", "MEAN_MOTION": 14.49959651, "ECCENTRICITY": 0.002078, "INCLINATION": 74.0442, "RA_OF_ASC_NODE": 115.6794, "ARG_OF_PERICENTER": 262.6258, "MEAN_ANOMALY": 275.2762, "EPHEMERIS_TYPE": 0, "CLASSIFICATION_TYPE": "U", "NORAD_CAT_ID": 35660, "ELEMENT_SET_NO": 999, "REV_AT_EPOCH": 66006, "BSTAR": 0.00046816232, "MEAN_MOTION_DOT": 1.789e-05, "MEAN_MOTION_DDOT": 0}, "tle": {"line1": "1 35660U 93036APB 25356.09087668  .00001789  00000+0  46816-3 0  9998", "line2": "2 35660  74.0442 115.6794 0020780 262.6258 275.2762 14.49959651660066"}}, "geometry": {"type": "Point", "coordinates": [-73.09161335910686, 23.354798487755037]}}]}